{
  "type": "FeatureCollection",
  "features": [
    {
      "type": "Feature",
      "properties": {
        "norad_id": 64751,
        "name": "PROGRESS-MS 31",
        "group": "stations",
        "lat": 33.10140370644747,
        "lon": -63.92495837601992,
        "alt_km": 414.2376059422986,
        "timestamp": "2025-12-11T18:59:44.831485+00:00",
        "meta_object_name": "PROGRESS-MS 31",
        "meta_object_id": "2025-146A",
        "meta_epoch": "2025-12-11T04:28:53.401152",
        "meta_mean_motion": 15.49499993,
        "meta_eccentricity": 0.00033343,
        "meta_inclination": 51.6309,
        "meta_ra_of_asc_node": 150.1691,
        "meta_arg_of_pericenter": 234.1557,
        "meta_mean_anomaly": 125.9122,
        "meta_ephemeris_type": 0,
        "meta_classification_type": "U",
        "meta_norad_cat_id": 64751,
        "meta_element_set_no": 999,
        "meta_rev_at_epoch": 675,
        "meta_bstar": 0.00030173842,
        "meta_mean_motion_dot": 0.00016503,
        "meta_mean_motion_ddot": 0,
        "tle_line1": "1 64751U 25146A   25345.18672918  .00016503  00000+0  30174-3 0  9994",
        "tle_line2": "2 64751  51.6309 150.1691 0003334 234.1557 125.9122 15.49499993  6754"
      },
      "geometry": {
        "type": "Point",
        "coordinates": [
          -63.92495837601992,
          33.10140370644747
        ]
      }
    },
    {
      "type": "Feature",
      "properties": {
        "norad_id": 64786,
        "name": "TIANZHOU-9",
        "group": "stations",
        "lat": -20.360029346795415,
        "lon": -132.688237980097,
        "alt_km": 397.74160585000755,
        "timestamp": "2025-12-11T18:59:44.831495+00:00",
        "meta_object_name": "TIANZHOU-9",
        "meta_object_id": "2025-149A",
        "meta_epoch": "2025-12-11T05:47:37.417056",
        "meta_mean_motion": 15.59084729,
        "meta_eccentricity": 0.00086412,
        "meta_inclination": 41.4683,
        "meta_ra_of_asc_node": 25.8033,
        "meta_arg_of_pericenter": 18.034,
        "meta_mean_anomaly": 342.0803,
        "meta_ephemeris_type": 0,
        "meta_classification_type": "U",
        "meta_norad_cat_id": 64786,
        "meta_element_set_no": 999,
        "meta_rev_at_epoch": 25530,
        "meta_bstar": 0.00049057627,
        "meta_mean_motion_dot": 0.00039326,
        "meta_mean_motion_ddot": 0,
        "tle_line1": "1 64786U 25149A   25345.24140529  .00039326  00000+0  49058-3 0  9999",
        "tle_line2": "2 64786  41.4683  25.8033 0008641  18.0340 342.0803 15.59084729255300"
      },
      "geometry": {
        "type": "Point",
        "coordinates": [
          -132.688237980097,
          -20.360029346795415
        ]
      }
    },
    {
      "type": "Feature",
      "properties": {
        "norad_id": 65077,
        "name": "CREW DRAGON 11",
        "group": "stations",
        "lat": 33.1014028382816,
        "lon": -63.9249572324948,
        "alt_km": 414.2376060318793,
        "timestamp": "2025-12-11T18:59:44.831505+00:00",
        "meta_object_name": "CREW DRAGON 11",
        "meta_object_id": "2025-166A",
        "meta_epoch": "2025-12-11T04:28:53.401152",
        "meta_mean_motion": 15.49499993,
        "meta_eccentricity": 0.00033343,
        "meta_inclination": 51.6309,
        "meta_ra_of_asc_node": 150.1691,
        "meta_arg_of_pericenter": 234.1557,
        "meta_mean_anomaly": 125.9122,
        "meta_ephemeris_type": 0,
        "meta_classification_type": "U",
        "meta_norad_cat_id": 65077,
        "meta_element_set_no": 999,
        "meta_rev_at_epoch": 214,
        "meta_bstar": 0.00030173842,
        "meta_mean_motion_dot": 0.00016503,
        "meta_mean_motion_ddot": 0,
        "tle_line1": "1 65077U 25166A   25345.18672918  .00016503  00000+0  30174-3 0  9998",
        "tle_line2": "2 65077  51.6309 150.1691 0003334 234.1557 125.9122 15.49499993  2145"
      },
      "geometry": {
        "type": "Point",
        "coordinates": [
          -63.9249572324948,
          33.1014028382816
        ]
      }
    },
    {
      "type": "Feature",
      "properties": {
        "norad_id": 65304,
        "name": "DRAGON CRS-33",
        "group": "stations",
        "lat": 33.10140240419673,
        "lon": -63.92495666072973,
        "alt_km": 414.2376060766719,
        "timestamp": "2025-12-11T18:59:44.831515+00:00",
        "meta_object_name": "DRAGON CRS-33",
        "meta_object_id": "2025-186A",
        "meta_epoch": "2025-12-11T04:28:53.401152",
        "meta_mean_motion": 15.49499993,
        "meta_eccentricity": 0.00033343,
        "meta_inclination": 51.6309,
        "meta_ra_of_asc_node": 150.1691,
        "meta_arg_of_pericenter": 234.1557,
        "meta_mean_anomaly": 125.9122,
        "meta_ephemeris_type": 0,
        "meta_classification_type": "U",
        "meta_norad_cat_id": 65304,
        "meta_element_set_no": 999,
        "meta_rev_at_epoch": 11,
        "meta_bstar": 0.00030173842,
        "meta_mean_motion_dot": 0.00016503,
        "meta_mean_motion_ddot": 0,
        "tle_line1": "1 65304U 25186A   25345.18672918  .00016503  00000+0  30174-3 0  9993",
        "tle_line2": "2 65304  51.6309 150.1691 0003334 234.1557 125.9122 15.49499993   113"
      },
      "geometry": {
        "type": "Point",
        "coordinates": [
          -63.92495666072973,
          33.10140240419673
        ]
      }
    },
    {
      "type": "Feature",
      "properties": {
        "norad_id": 65586,
        "name": "PROGRESS-MS 32",
        "group": "stations",
        "lat": 33.101401926706046,
        "lon": -63.9249560317916,
        "alt_km": 414.23760612594197,
        "timestamp": "2025-12-11T18:59:44.831526+00:00",
        "meta_object_name": "PROGRESS-MS 32",
        "meta_object_id": "2025-204A",
        "meta_epoch": "2025-12-11T04:28:53.401152",
        "meta_mean_motion": 15.49499993,
        "meta_eccentricity": 0.00033343,
        "meta_inclination": 51.6309,
        "meta_ra_of_asc_node": 150.1691,
        "meta_arg_of_pericenter": 234.1557,
        "meta_mean_anomaly": 125.9122,
        "meta_ephemeris_type": 0,
        "meta_classification_type": "U",
        "meta_norad_cat_id": 65586,
        "meta_element_set_no": 999,
        "meta_rev_at_epoch": 27,
        "meta_bstar": 0.00030173842,
        "meta_mean_motion_dot": 0.00016503,
        "meta_mean_motion_ddot": 0,
        "tle_line1": "1 65586U 25204A   25345.18672918  .00016503  00000+0  30174-3 0  9996",
        "tle_line2": "2 65586  51.6309 150.1691 0003334 234.1557 125.9122 15.49499993   272"
      },
      "geometry": {
        "type": "Point",
        "coordinates": [
          -63.9249560317916,
          33.101401926706046
        ]
      }
    },
    {
      "type": "Feature",
      "properties": {
        "norad_id": 65616,
        "name": "CYGNUS NG-23",
        "group": "stations",
        "lat": 33.10140149262228,
        "lon": -63.92495546002798,
        "alt_km": 414.23760617073276,
        "timestamp": "2025-12-11T18:59:44.831536+00:00",
        "meta_object_name": "CYGNUS NG-23",
        "meta_object_id": "2025-208A",
        "meta_epoch": "2025-12-11T04:28:53.401152",
        "meta_mean_motion": 15.49499993,
        "meta_eccentricity": 0.00033343,
        "meta_inclination": 51.6309,
        "meta_ra_of_asc_node": 150.1691,
        "meta_arg_of_pericenter": 234.1557,
        "meta_mean_anomaly": 125.9122,
        "meta_ephemeris_type": 0,
        "meta_classification_type": "U",
        "meta_norad_cat_id": 65616,
        "meta_element_set_no": 999,
        "meta_rev_at_epoch": 22,
        "meta_bstar": 0.00030173842,
        "meta_mean_motion_dot": 0.00016503,
        "meta_mean_motion_ddot": 0,
        "tle_line1": "1 65616U 25208A   25345.18672918  .00016503  00000+0  30174-3 0  9994",
        "tle_line2": "2 65616  51.6309 150.1691 0003334 234.1557 125.9122 15.49499993   221"
      },
      "geometry": {
        "type": "Point",
        "coordinates": [
          -63.92495546002798,
          33.10140149262228
        ]
      }
    },
    {
      "type": "Feature",
      "properties": {
        "norad_id": 65729,
        "name": "DRAGONFLY",
        "group": "stations",
        "lat": 28.841199891740974,
        "lon": 166.49280498421933,
        "alt_km": 353.863487561729,
        "timestamp": "2025-12-11T18:59:44.831549+00:00",
        "meta_object_name": "DRAGONFLY",
        "meta_object_id": "1998-067XH",
        "meta_epoch": "2025-12-11T03:34:16.542048",
        "meta_mean_motion": 15.71180147,
        "meta_eccentricity": 0.00065749,
        "meta_inclination": 51.6246,
        "meta_ra_of_asc_node": 143.9077,
        "meta_arg_of_pericenter": 266.7325,
        "meta_mean_anomaly": 93.2921,
        "meta_ephemeris_type": 0,
        "meta_classification_type": "U",
        "meta_norad_cat_id": 65729,
        "meta_element_set_no": 999,
        "meta_rev_at_epoch": 1291,
        "meta_bstar": 0.0016713149,
        "meta_mean_motion_dot": 0.00221047,
        "meta_mean_motion_ddot": 0,
        "tle_line1": "1 65729U 98067XH  25345.14880257  .00221047  00000+0  16713-2 0  9998",
        "tle_line2": "2 65729  51.6246 143.9077 0006574 266.7325  93.2921 15.71180147 12913"
      },
      "geometry": {
        "type": "Point",
        "coordinates": [
          166.49280498421933,
          28.841199891740974
        ]
      }
    }
  ]
}